ONEWEB-0605             
1 54669U 22166AD  22355.46197022  .00003008  00000+0  30269-3 0  9998
2 54669  86.5169 152.8170 0007218 197.4543 162.6437 14.90839431  2162
ONEWEB-0606             
1 54670U 22166AE  22355.45981028  .00003095  00000+0  30958-3 0  9997
2 54670  86.5189 152.8192 0007839 190.1650 169.9420 14.91098431  2168
ONEWEB-0607             
1 54671U 22166AF  22355.72872272  .00003012  00000+0  30159-3 0  9990
2 54671  86.5148 152.6934 0007733 190.7063 169.4001 14.91040953  2653
ONEWEB-0608             
1 54672U 22166AG  22355.45190734  .00003198  00000+0  31218-3 0  9999
2 54672  86.5163 152.8112 0011867 191.8354 168.2597 14.92040720  2604
ONEWEB-0610             
1 54673U 22166AH  22355.45957145  .00002148  00000+0  21383-3 0  9993
2 54673  86.5159 152.8131 0007900 189.4938 170.6141 14.91113266  2613
ONEWEB-0611             
1 54674U 22166AJ  22355.45457771  .00003183  00000+0  31326-3 0  9992
2 54674  86.5177 152.8152 0010591 187.0699 173.0381 14.91724135  2161
ONEWEB-0612             
1 54675U 22166AK  22355.72939602 -.00000582  00000+0 -62015-4 0  9993
2 54675  86.5190 152.7016 0006933 191.4017 168.7055 14.90947081  2652
ONEWEB-0615             
1 54676U 22166AL  22355.45651444  .00003154  00000+0  31235-3 0  9994
2 54676  86.5177 152.8166 0009597 185.7111 174.4009 14.91489288  2165
ONEWEB-0655             
1 54677U 22166AM  22355.45669313  .00002894  00000+0  28653-3 0  9999
2 54677  86.5162 152.8112 0009505 185.9469 174.1647 14.91464215  2616
ONEWEB-0659             
1 54678U 22166AN  22355.45604943  .00003273  00000+0  32369-3 0  9999
2 54678  86.5163 152.8103 0009838 185.9607 174.1505 14.91546936  2165
ONEWEB-0685             
1 54679U 22166AP  22355.46162725  .00002828  00000+0  28425-3 0  9991
2 54679  86.5185 152.8194 0007284 195.7633 164.3368 14.90872627  2167
ONEWEB-0712             
1 54680U 22166AQ  22355.45169158  .00003231  00000+0  31526-3 0  9994
2 54680  86.5176 152.8106 0011948 192.2453 167.8486 14.92068502  2605
ONEWEB-0714             
1 54681U 22166AR  22355.44993607  .00003720  00000+0  36134-3 0  9991
2 54681  86.5179 152.8098 0012322 195.9428 164.1414 14.92280824  2163
2022-167A               
1 54682U 22167A   22355.81162927  .00011294  00000+0  71963-3 0  9991
2 54682  97.5350 130.5825 0013727 220.6020 276.7832 15.08827519  1891
2022-167B               
1 54683U 22167B   22355.78475506  .00037530  00000+0  42352-3 0  9999
2 54683  97.5863 131.2866 0202658 280.6827  77.1678 15.41279346  1907
CAS-5A (FO-118)         
1 54684U 22167C   22355.81530250  .00008950  00000+0  57010-3 0  9993
2 54684  97.5379 130.5919 0014111 221.8440 300.0600 15.08900557  1882
2022-167D               
1 54685U 22167D   22355.80562737  .00006392  00000+0  40202-3 0  9991
2 54685  97.5430 130.6029 0012945 235.4011 262.2109 15.09496065  1880
2022-167E               
1 54686U 22167E   22355.80562753  .00006310  00000+0  39697-3 0  9996
2 54686  97.5389 130.5959 0012707 235.3880 262.0800 15.09492204  1881
2022-167F               
1 54687U 22167F   22355.80518671  .00007971  00000+0  49919-3 0  9999
2 54687  97.5374 130.5949 0013334 235.8072 261.8401 15.09569884  1883
2022-167G               
1 54688U 22167G   22355.87664188  .00010507  00000+0  65438-3 0  9995
2 54688  97.5345 130.6617 0013709 235.5891 293.6975 15.09684270  1894
2022-167H               
1 54689U 22167H   22355.87342932  .00006357  00000+0  39839-3 0  9990
2 54689  97.5454 130.6747 0013824 235.5609 275.8032 15.09618595  1898
2022-167J               
1 54690U 22167J   22355.80339677  .00006441  00000+0  40192-3 0  9995
2 54690  97.5333 130.5906 0014032 238.5957 259.1115 15.09767882  1883
2022-167K               
1 54691U 22167K   22355.80399481  .00007174  00000+0  44788-3 0  9994
2 54691  97.5392 130.6003 0014330 238.9173 258.8151 15.09706496  1883
2022-167L               
1 54692U 22167L   22355.80333832  .00006428  00000+0  40095-3 0  9991
2 54692  97.5438 130.6063 0014673 237.8262 259.9047 15.09775078  1886
2022-167M               
1 54693U 22167M   22355.81153934  .00012229  00000+0  77812-3 0  9999
2 54693  97.5411 130.5913 0014218 220.1826 277.2705 15.08851950  1851
2022-167N               
1 54694U 22167N   22355.80501208  .00006525  00000+0  40569-3 0  9991
2 54694  97.5353 130.5971 0014946 238.9610 272.6967 15.09883734  1885
2022-167P               
1 54695U 22167P   22355.80243725  .00006492  00000+0  40361-3 0  9992
2 54695  97.5400 130.6012 0015237 238.8986 258.8793 15.09885494  1883
FALCON 9 R/B            
1 54698U 22168C   22345.32368031  .00002049 -64822-5  00000+0 0  9995
2 54698  29.0000  41.2312 0098300  59.8200  27.0300 16.15592824    07
2022-169A               
1 54699U 22169A   22355.70106357 -.00000012  00000+0  48928-4 0  9997
2 54699  59.9949 126.2270 0006619 256.5026 103.5219 14.29221162  1336
2022-169B               
1 54700U 22169B   22355.70420277  .00000163  00000+0  11874-3 0  9995
2 54700  59.9945 126.2405 0006974 238.0196 122.0104 14.28666771  1339
2022-169C               
1 54701U 22169C   22355.84658848  .00000211  00000+0  91185-4 0  9996
2 54701  59.9560 124.6513 0094407  48.2054 312.7014 14.49496280  1378
2022-169D               
1 54702U 22169D   22355.70166077  .00000817  00000+0  37447-3 0  9992
2 54702  59.9971 126.2325 0006283 247.7232 112.3085 14.29138404  1341
SZ-14 MODULE            
1 54704U 22060G   22355.78566734  .00025189  00000+0  29683-3 0  9998
2 54704  41.4867 156.7462 0008405 190.0813 303.7749 15.60751661  2454
GALAXY 35 (G-35)        
1 54741U 22170A   22354.48052271  .00000088  00000+0  00000+0 0  9992
2 54741   3.2800 218.0866 5571715 180.1209  86.7088  1.94784646   128
GALAXY 36 (G-36)        
1 54742U 22170B   22350.43859110 -.00000334  00000+0  00000+0 0  9996
2 54742   3.4336 218.5937 5690547 178.9969 147.4018  1.97366996    59
METEOSAT-12 (MTG-1)     
1 54743U 22170C   22353.31524981 -.00000002  00000+0  00000+0 0  9994
2 54743   5.5504 217.8990 7131836 181.4542 110.3708  2.25104636   115
ARIANE 5 DEB [SYLDA]    
1 54744U 22170D   22355.07314762  .00036969  00000+0  66752-2 0  9993
2 54744   6.0023 216.0262 7285246 184.0081 162.6366  2.28631328   164
ARIANE 5 R/B            
1 54745U 22170E   22350.70750442  .00034354  00000+0  36366-2 0  9992
2 54745   5.8807 219.6241 7285962 178.2913 187.0722  2.29667630    64
2022-171A               
1 54746U 22171A   22355.13173284 -.00000037  00000+0  00000+0 0  9994
2 54746  34.9940 295.1934 0007144 310.1109 185.2155 15.22777545   979
2022-171B               
1 54747U 22171B   22355.32733708 -.00000038  00000+0  00000+0 0  9990
2 54747  35.0003 293.9565 0007971 322.6885 175.4101 15.23529194   973
2022-171C               
1 54748U 22171C   22355.56396991 -.00000038  00000+0  00000+0 0  9996
2 54748  34.9972 292.4582 0009652 337.8401  22.2963 15.23230733  1019
2022-171D               
1 54749U 22171D   22354.98483594 -.00000038  00000+0  00000+0 0  9998
2 54749  34.9957 296.0848 0009625 324.1759  99.5783 15.23864413   927
2022-171E               
1 54750U 22171E   22355.90179112 -.00000038  00000+0  00000+0 0  9991
2 54750  34.9927 290.3058 0009630 347.0813  77.1094 15.23707205  1054
2022-167Q               
1 54751U 22167Q   22355.80439404  .00008202  00000+0  51208-3 0  9999
2 54751  97.5363 130.5933 0013568 236.5469 261.1754 15.09669811  1541
SHIYAN 21               
1 54752U 22172A   22355.82120453  .00008496  00000+0  30825-3 0  9996
2 54752  35.9986 120.0850 0014113 349.5650 142.9881 15.27643135   856
SWOT                    
1 54754U 22173A   22356.06882944  .00137632  00000+0  76186-1 0  9999
2 54754  77.5944 318.4288 0003900  14.5485 345.1332 14.10301264   784
2022-174A               
1 54755U 22174A   22355.42611364  .00000047  00000+0  00000+0 0  9995
2 54755   9.6166 254.1820 1871681 193.2946 161.0222  7.26208660   331
2022-174B               
1 54756U 22174B   22355.42553355  .00000047  00000+0  00000+0 0  9991
2 54756   9.6189 254.1818 1869924 193.3733 160.9176  7.26305756   325
2022-174C               
1 54757U 22174C   22353.36484503  .00000047  00000+0  00000+0 0  9991
2 54757   9.6209 257.1735 1868337 187.4265 169.3825  7.25878007   160
